0 SL-6 R/B(2)
1 16533U 86011F   13280.28434556  .00000560  00000-0  00000+0 0  1414
2 16533 070.4833 317.9485 5479032 142.5975 337.5344 02.04045304189532
0 SL-6 R/B(2)
1 16533U 86011F   13282.71742600  .00000448  00000-0  00000+0 0  1422
2 16533 070.4854 317.8261 5478264 142.5309 324.7816 02.04048438189581
0 SL-6 R/B(2)
1 16533U 86011F   13283.62650950  .00000000  00000-0  10000-3 0  1440
2 16533 070.4864 317.7878 5479419 142.4984 272.5673 02.04048314189603
0 SL-6 R/B(2)
1 16533U 86011F   13285.49452903  .00000197  00000-0  00000+0 0  1436
2 16533 070.4870 317.6870 5477413 142.4536 204.7662 02.04052408189633
0 SL-6 R/B(2)
1 16533U 86011F   13290.48789573 -.00000446  00000-0  00000+0 0  1446
2 16533 070.4899 317.4419 5474718 142.3005 272.8620 02.04055834189744
0 SL-6 R/B(2)
1 16533U 86011F   13290.48789660  .00000000  00000-0  10000-3 0  1454
2 16533 070.4907 317.4432 5476958 142.3118 272.8512 02.04054219189737
0 SL-6 R/B(2)
1 16533U 86011F   13290.61287940 -.00000460  00000-0  00000+0 0  1459
2 16533 070.4884 317.4317 5476069 142.3082 004.6578 02.04056294189745
0 SL-6 R/B(2)
1 16533U 86011F   13293.74855006 -.00000656  00000-0  00000+0 0  1468
2 16533 070.4894 317.2757 5475358 142.2201 148.1054 02.04054596189807
